P/2012 K3 (Gibbs),e,13.1886,125.8199,172.2410,3.628601,0.1425920,0.42247582,179.9721,01/30.0/2023,2000,g 15.0,4.0
# From MPC 88326
P/2012 NJ (La Sagra),e,84.5612,315.5969,338.3862,8.466157,0.0400106,0.84672910,155.2668,01/30.0/2023,2000,g 14.5,4.0
# From MPC 81470
P/2012 O1 (McNaught),e,7.4269,91.9267,238.3334,3.541745,0.1478693,0.59425038,211.3094,01/30.0/2023,2000,g 17.5,4.0
# From MPC 80899
P/2012 O2 (McNaught),e,24.4675,120.6831,183.4774,3.626334,0.1427258,0.53195979,194.8580,01/30.0/2023,2000,g 17.0,4.0
# From MPC 82320
P/2012 T2 (PANSTARRS),e,12.5681,73.7164,310.7929,5.727551,0.0719036,0.16237690,255.9645,01/30.0/2023,2000,g 10.0,4.0
# From MPC 80900
P/2012 T3 (PANSTARRS),e,9.5577,114.3660,195.5430,6.151343,0.0646025,0.61664325,253.2992,01/30.0/2023,2000,g 15.0,4.0
# From MPC 82720
P/2012 U2 (PANSTARRS),e,10.7597,185.3262,228.2616,7.131534,0.0517523,0.50004180,192.8747,01/30.0/2023,2000,g 12.5,4.0
# From MPC 84024
P/2012 US27 (Siding Spring),e,39.3694,49.2075,0.8301,5.164492,0.0839774,0.64828398,307.0744,01/30.0/2023,2000,g 13.5,4.0
# From MPC 82721
P/2012 WA34 (Lemmon-PANSTARRS),e,6.0819,93.5564,356.6056,4.680504,0.0973341,0.34379174,344.4568,01/30.0/2023,2000,g 13.5,4.0
# From MPC 82721
P/2013 AL76 (Catalina),e,144.8732,146.0165,27.0404,6.499910,0.0594762,0.68593134,220.7801,01/30.0/2023,2000,g 16.0,4.0
# From MPEC 2022-K19
P/2013 EW90,e,31.7918,160.2895,346.0354,4.112224,0.1181922,0.19468769,84.5072,01/30.0/2023,2000,g 14.3,4.0
# From MPC 91612
P/2013 G1 (Kowalski),e,5.4578,221.3077,51.5473,6.897926,0.0544034,0.51110529,181.6790,01/30.0/2023,2000,g 11.0,4.0
# From MPC 84025
P/2013 G4 (PANSTARRS),e,5.9160,339.6329,214.6209,4.438089,0.1054169,0.40917404,23.6919,01/30.0/2023,2000,g 15.0,4.0
# From MPC 91613
P/2013 J2 (McNaught),e,15.5095,289.3395,37.8786,6.223238,0.0634862,0.65728996,218.2972,01/30.0/2023,2000,g 13.0,4.0
# From MPC 86229
P/2013 N3 (PANSTARRS),e,2.1736,17.4751,323.9762,7.395656,0.0490048,0.59296193,160.1263,01/30.0/2023,2000,g 13.0,4.0
# From MPC 85834
P/2013 N5 (PANSTARRS),e,23.4619,187.1552,176.9472,6.797016,0.0556194,0.73250908,194.2677,01/30.0/2023,2000,g 17.0,4.0
# From MPC 85834
P/2013 P1 (PANSTARRS),e,18.7225,160.6020,138.2543,8.582875,0.0391972,0.60447276,142.0258,01/30.0/2023,2000,g 12.0,4.0
# From MPEC 2022-V95
P/2013 R3 (Catalina-PANSTARRS),e,0.8650,341.9764,11.2942,3.031910,0.1866937,0.27562662,282.4516,01/30.0/2023,2000,g 14.0,4.0
# From unp
P/2013 R3-A (Catalina-PANSTARRS),e,0.8642,341.9312,11.3732,3.031664,0.1867164,0.27555728,282.5118,01/30.0/2023,2000,g  9.0,4.0
# From MPEC 2015-M77
P/2013 R3-B (Catalina-PANSTARRS),e,0.8654,341.9872,11.3079,3.031884,0.1866961,0.27560258,282.4462,01/30.0/2023,2000,g  9.0,4.0
# From MPC 85835
P/2013 T1 (PANSTARRS),e,24.3032,10.0803,346.1721,5.856637,0.0695395,0.62428475,240.7111,01/30.0/2023,2000,g 16.5,4.0
# From MPC 86643
P/2013 T2 (Schwartz),e,9.4571,0.8015,345.5853,3.491925,0.1510452,0.50103750,174.6113,01/30.0/2023,2000,g 16.0,4.0
# From MPC 91613
P/2013 W1 (PANSTARRS),e,4.6968,117.8394,1.2260,3.487366,0.1513414,0.59293372,131.9335,01/30.0/2023,2000,g 17.5,4.0
# From MPC101095
P/2013 YG46 (Spacewatch),e,7.8576,48.8365,242.6036,3.273650,0.1664009,0.45460971,3.9443,01/30.0/2023,2000,g 10.0,4.0
# From MPC 89728
P/2014 A2 (Hill),e,24.5472,106.6336,356.1455,5.927100,0.0683032,0.64573730,232.1735,01/30.0/2023,2000,g 15.0,4.0
# From MPC 92981
P/2014 A3 (PANSTARRS),e,13.7171,229.9775,214.1394,4.607891,0.0996439,0.24655325,351.7903,01/30.0/2023,2000,g 12.0,4.0
# From MPC102095
P/2014 C1 (TOTAS),e,2.6933,167.8199,23.9468,3.031807,0.1867032,0.45132313,258.4407,01/30.0/2023,2000,g 15.5,4.0
# From MPEC 2022-WD2
C/2014 F3 (Sheppard-Trujillo),e,6.5377,326.3389,4.5570,14.56510,0.0177310,0.60801357,10.8297,01/30.0/2023,2000,g  6.0,4.0
# From MPC 98560
P/2014 L2 (NEOWISE),e,5.1985,149.3460,182.7214,6.305499,0.0622479,0.64785501,193.8390,01/30.0/2023,2000,g 12.0,4.0
# From MPC 90769
P/2014 L3 (Hill),e,6.2666,115.4955,178.7079,8.178564,0.0421394,0.77261210,132.1444,01/30.0/2023,2000,g 16.0,4.0
# From MPC 91614
P/2014 M4 (PANSTARRS),e,3.3437,263.1820,148.0474,5.868109,0.0693357,0.59567052,204.7685,01/30.0/2023,2000,g 15.0,4.0
# From MPEC 2022-K19
P/2014 MG4 (Spacewatch-PANSTARRS),e,9.3665,311.7251,299.0311,5.013456,0.0878008,0.25888670,308.5059,01/30.0/2023,2000,g  9.5,4.0
# From MPC 98560
P/2014 O3 (PANSTARRS),e,7.7955,87.6393,204.7900,7.577256,0.0472537,0.38432156,151.6514,01/30.0/2023,2000,g 10.5,4.0
# From MPEC 2023-A50
C/2014 OG392 (PANSTARRS),e,9.0330,145.8040,254.4061,12.25478,0.0229745,0.18638547,9.5794,01/30.0/2023,2000,g  6.0,4.0
# From MPC 91616
P/2014 U4 (PANSTARRS),e,6.4291,11.8853,347.8426,3.509013,0.1499432,0.46482890,107.2611,01/30.0/2023,2000,g 18.0,4.0
# From MPEC 2023-BF4
C/2014 UN271 (Bernardinelli-Bernstein),h,01/21.8667/2031,95.4297,189.8968,326.2316,1.001143,10.946998,2000,2.5,3.2
# From MPC 95211
P/2014 V1 (PANSTARRS),e,22.5246,166.1988,177.6593,5.479449,0.0768420,0.53440957,224.7035,01/30.0/2023,2000,g 14.0,4.0
# From MPC 93586
P/2014 W1 (PANSTARRS),e,8.8358,246.2266,152.1251,4.467588,0.1043745,0.38945282,326.2699,01/30.0/2023,2000,g 15.5,4.0
# From MPC105542
P/2014 W4 (PANSTARRS),e,15.2834,33.3893,67.5904,6.587948,0.0582880,0.35344567,150.7936,01/30.0/2023,2000,g 11.0,4.0
# From MPC 94281
P/2014 X1 (Elenin),e,26.0496,61.5673,33.8659,6.204546,0.0637733,0.70965791,188.1796,01/30.0/2023,2000,g 15.0,4.0
# From MPC 92275
P/2015 A3 (PANSTARRS),e,172.5418,277.3326,249.4718,7.815622,0.0451085,0.85033695,130.9768,01/30.0/2023,2000,g 20.0,4.0
# From MPC 99270
P/2015 B1 (PANSTARRS),e,18.0548,352.9171,188.8650,9.489837,0.0337144,0.36644803,91.0278,01/30.0/2023,2000,g  8.5,4.0
# From MPC109141
P/2015 B4 (Lemmon-PANSTARRS),e,1.7637,266.0669,227.2406,8.516013,0.0396597,0.56065570,115.7457,01/30.0/2023,2000,g 11.0,4.0
# From MPC101096
P/2015 C1 (TOTAS-Gibbs),e,13.9201,348.7915,178.0968,6.574016,0.0584733,0.56109491,166.0387,01/30.0/2023,2000,g 12.5,4.0
# From MPC109141
P/2015 D5 (Kowalski),e,20.5356,74.0736,39.6516,8.953040,0.0367916,0.49003857,118.6755,01/30.0/2023,2000,g  9.0,4.0
# From MPC 96866
P/2015 D6 (Lemmon-PANSTARRS),e,20.2071,45.8505,125.0019,7.135334,0.0517110,0.36139272,143.5004,01/30.0/2023,2000,g 10.5,4.0
# From MPEC 2021-P47
P/2015 HG16 (PANSTARRS),e,18.8725,57.3697,47.4583,4.784508,0.0941777,0.35203930,300.8637,01/30.0/2023,2000,g 12.5,4.0
# From MPC 95213
P/2015 K5 (PANSTARRS),e,39.9427,134.2197,106.3115,6.726586,0.0564953,0.55182238,158.2333,01/30.0/2023,2000,g 13.5,4.0
# From MPC107684
P/2015 M2 (PANSTARRS),e,3.9693,86.5827,226.0091,7.244081,0.0505509,0.17968042,136.2727,01/30.0/2023,2000,g  8.5,4.0
# From MPEC 2021-P47
C/2015 O1 (PANSTARRS),h,02/20.2123/2018,127.1705,299.8242,89.5244,1.001382,3.720130,2000,6.5,4.0
# From MPC 99819
P/2015 P4 (PANSTARRS),e,8.7178,104.6739,280.6813,6.046680,0.0662870,0.58575068,169.8981,01/30.0/2023,2000,g 14.0,4.0
# From MPEC 2022-K19
P/2015 PD229 (Cameron-ISON),e,2.0248,342.6618,352.7022,7.193656,0.0510834,0.32746083,139.0601,01/30.0/2023,2000,g 11.5,2.0
# From MPC 96867
P/2015 Q2 (Pimentel),e,146.5511,228.5380,244.6521,7.353464,0.0494272,0.75068948,133.5213,01/30.0/2023,2000,g 15.5,4.0
# From MPC 98562
P/2015 R1 (PANSTARRS),e,22.6991,48.3231,300.5878,5.880650,0.0691140,0.63424698,191.4332,01/30.0/2023,2000,g 14.0,4.0
# From MPC 95734
P/2015 R2 (PANSTARRS),e,15.4847,168.5959,149.8589,4.485233,0.1037592,0.45273267,288.8743,01/30.0/2023,2000,g 14.5,4.0
# From MPC 96280
P/2015 T3 (PANSTARRS),e,13.0937,120.5019,178.6330,4.326181,0.1095335,0.50818108,359.9227,12/21.0/2014,2000,g 14.0,4.0
# From MPC102953
P/2015 TO19 (Lemmon-PANSTARRS),e,6.5011,321.6255,89.1954,4.551649,0.1014965,0.35940359,255.6503,01/30.0/2023,2000,g 14.0,4.0
# From MPC110080
P/2015 TP200 (LINEAR),e,8.7804,7.0172,82.4387,7.264377,0.0503392,0.53630696,114.9740,01/30.0/2023,2000,g 11.0,4.0
# From MPC115881
C/2015 V1 (PANSTARRS),e,139.2312,197.1381,179.7199,2509,0.0000078,0.99829292,0.0000,12/16.4790/2017,2000,g  6.5,4.0
# From MPC101098
P/2015 W2 (Catalina),e,11.6105,294.1390,117.5661,7.290714,0.0500667,0.63532218,133.8986,01/30.0/2023,2000,g 13.0,4.0
# From MPEC 2022-OB6
C/2015 XY1 (Lemmon),e,148.8517,281.5683,196.1375,19320,0.0000004,0.99958976,0.0000,04/25.4147/2018,2000,g  5.5,4.0
# From MPEC 2022-OB6
P/2015 X3 (PANSTARRS),e,24.4050,77.2688,306.7695,5.003035,0.0880752,0.44007479,240.1552,01/30.0/2023,2000,g 15.0,4.0
# From MPC119995
C/2015 X5 (PANSTARRS),e,124.3218,122.3003,27.5381,7985,0.0000014,0.99914903,0.0000,12/26.9821/2017,2000,g  7.5,4.0
# From MPC115881
P/2015 X6 (PANSTARRS),e,4.5650,106.9318,329.7836,2.752232,0.2158622,0.17320728,180.1940,01/30.0/2023,2000,g 16.0,4.0
# From MPEC 2022-O08
C/2016 A1 (PANSTARRS),e,121.2182,128.1603,10.0794,6106,0.0000021,0.99912933,0.0000,11/20.5578/2017,2000,g  6.0,4.0
# From MPC100282
P/2016 A2 (Christensen),e,26.4039,291.6180,141.2853,4.753600,0.0950977,0.27092872,265.1722,01/30.0/2023,2000,g 11.5,4.0
# From MPEC 2022-OB6
P/2016 A3 (PANSTARRS),e,8.5111,187.2200,340.9077,7.879190,0.0445637,0.38603619,93.8163,01/30.0/2023,2000,g 10.0,4.0
# From MPC102098
P/2016 A7 (PANSTARRS),e,16.6032,221.4972,352.5193,5.035270,0.0872308,0.56447339,221.3175,01/30.0/2023,2000,g 16.0,4.0
# From MPC109143
P/2016 BA14 (PANSTARRS),e,18.8969,180.5133,351.9708,3.026776,0.1871688,0.66443141,110.8037,01/30.0/2023,2000,g 21.0,4.0
# From MPEC 2021-P47
P/2016 G1 (PANSTARRS),e,10.9711,204.0176,111.1495,2.582873,0.2374376,0.21068382,161.2805,01/30.0/2023,2000,g 14.0,4.0
# From MPEC 2017-D91
P/2016 J1-A (PANSTARRS),e,14.3293,199.8084,47.0907,3.172859,0.1743925,0.22770641,59.8113,01/30.0/2023,2000,g 16.5,4.0
# From MPEC 2017-A77
P/2016 J1-B (PANSTARRS),e,14.3320,199.8132,46.9821,3.172495,0.1744225,0.22755712,59.9592,01/30.0/2023,2000,g 17.0,4.0
# From MPEC 2022-ED3
C/2016 M1 (PANSTARRS),e,90.8661,92.2626,209.9355,54605,0.0000001,0.99995945,0.0000,08/10.4983/2018,2000,g  5.0,4.0
# From MPEC 2021-P47
C/2016 N6 (PANSTARRS),e,105.8615,298.9110,162.5826,969.0040,0.0000327,0.99725506,0.0000,07/17.4485/2018,2000,g  7.0,4.0
